[
    {
        "Altitude(m)": 607897.6423791152,
        "Argument of Periapsis(deg)": 0.0,
        "Eccentricity": 0.0,
        "Inclination(deg)": 60.0,
        "Latitude(deg)": -14.293090946236566,
        "Longitude(deg)": -98.38124930689098,
        "Mean Anomaly(deg)": 343.6364,
        "RAAN(deg)": 10.0,
        "Satellite Name": "Test1 65",
        "Satellite Number": 65,
        "Semi-Major Axis(m)": 6980739.136638005,
        "Time(s)": 0
    },
    {
        "Altitude(m)": 607750.842725092,
        "Argument of Periapsis(deg)": 0.00010418945913296404,
        "Eccentricity": 0.0,
        "Inclination(deg)": 60.0,
        "Latitude(deg)": -13.75893244079222,
        "Longitude(deg)": -98.09418001870218,
        "Mean Anomaly(deg)": 344.2565061454618,
        "RAAN(deg)": 9.999579950860259,
        "Satellite Name": "Test1 65",
        "Satellite Number": 65,
        "Semi-Major Axis(m)": 6980739.136638005,
        "Time(s)": 10
    }
]